stk.v.9.0
WrittenBy    STK_v9.2.3

BEGIN Satellite

Name		SCISAT

BEGIN VehiclePath
	CentralBody				Earth

    BEGIN Interval

         StartTime            3 Jan 2017 23:00:09.000000000
         StopTime             17 Jan 2017 23:00:09.000000000

    END Interval

	StoreEphemeris				Yes
	SmoothInterp				No

    BEGIN SGP4

    VersionIndicator    20080918

    SSCNumber           27858
    IntlDesignator      2003-036A  
    UseScenInterval     Yes
    StartTime           3 Jan 2017 23:00:09.000
    StopTime            17 Jan 2017 23:00:09.000
    TimeStep            60.000000
    Use1PtInterpolation Yes
    Use1PtValidation    No
    Use1PtInterpWarning No
    UpdateMode          OnlineAGI
    RetrieveMethod      AllTLEs
    UpdateSwitchMethod  Epoch

    Begin TwoLineElement

    Enabled             Yes

    Source              OnlineAGI
    LastUpdated         11 Jan 2017 04:58:10.000

    SwitchMethod        Epoch

    TLE
    1 27858U 03036A   17003.86424766  .00000085  00000-0  17063-4 0  9990
    2 27858  73.9324 152.4580 0009227 288.9446  71.0728 14.77099564721519

    END TwoLineElement


    Begin TwoLineElement

    Enabled             Yes

    Source              OnlineAGI
    LastUpdated         11 Jan 2017 04:58:10.000

    SwitchMethod        Epoch

    TLE
    1 27858U 03036A   17004.88017185  .00000089  00000-0  17633-4 0  9993
    2 27858  73.9326 150.4537 0009245 286.9538  73.0622 14.77099837721665

    END TwoLineElement


    Begin TwoLineElement

    Enabled             Yes

    Source              OnlineAGI
    LastUpdated         11 Jan 2017 04:58:10.000

    SwitchMethod        Epoch

    TLE
    1 27858U 03036A   17004.94790011  .00000089  00000-0  17638-4 0  9991
    2 27858  73.9326 150.3201 0009246 286.8273  73.1887 14.77099862721671

    END TwoLineElement


    Begin TwoLineElement

    Enabled             Yes

    Source              OnlineAGI
    LastUpdated         11 Jan 2017 04:58:10.000

    SwitchMethod        Epoch

    TLE
    1 27858U 03036A   17005.82836756  .00000112  00000-0  20946-4 0  9999
    2 27858  73.9327 148.5831 0009263 285.1593  74.8557 14.77100229721803

    END TwoLineElement


    Begin TwoLineElement

    Enabled             Yes

    Source              OnlineAGI
    LastUpdated         11 Jan 2017 04:58:10.000

    SwitchMethod        Epoch

    TLE
    1 27858U 03036A   17006.77656303  .00000120  00000-0  22034-4 0  9991
    2 27858  73.9329 146.7125 0009286 283.3661  76.6477 14.77100572721949

    END TwoLineElement


    Begin TwoLineElement

    Enabled             Yes

    Source              OnlineAGI
    LastUpdated         11 Jan 2017 04:58:10.000

    SwitchMethod        Epoch

    TLE
    1 27858U 03036A   17007.52157367  .00000110  00000-0  20588-4 0  9992
    2 27858  73.9330 145.2427 0009296 281.9472  78.0660 14.77100795722055

    END TwoLineElement


    Begin TwoLineElement

    Enabled             Yes

    Source              OnlineAGI
    LastUpdated         11 Jan 2017 04:58:10.000

    SwitchMethod        Epoch

    TLE
    1 27858U 03036A   17007.79248665  .00000105  00000-0  19919-4 0  9993
    2 27858  73.9331 144.7083 0009307 281.4761  78.5367 14.77100841722092

    END TwoLineElement


    Begin TwoLineElement

    Enabled             Yes

    Source              OnlineAGI
    LastUpdated         11 Jan 2017 04:58:10.000

    SwitchMethod        Epoch

    TLE
    1 27858U 03036A   17008.80841008  .00000089  00000-0  17695-4 0  9996
    2 27858  73.9333 142.7041 0009325 279.5625  80.4495 14.77101088722248

    END TwoLineElement


    Begin TwoLineElement

    Enabled             Yes

    Source              OnlineAGI
    LastUpdated         11 Jan 2017 04:58:10.000

    SwitchMethod        Epoch

    TLE
    1 27858U 03036A   17009.75660526  .00000069  00000-0  14832-4 0  9993
    2 27858  73.9334 140.8335 0009335 277.7771  82.2343 14.77101232722385

    END TwoLineElement


    Begin TwoLineElement

    Enabled             Yes

    Source              OnlineAGI
    LastUpdated         11 Jan 2017 04:58:10.000

    SwitchMethod        Epoch

    TLE
    1 27858U 03036A   17010.23070279  .00000070  00000-0  14901-4 0  9997
    2 27858  73.9334 139.8982 0009337 276.8906  83.1206 14.77101377722459
